1 41183U 15081E   16130.66215309  .00000250  00000-0  11989-3 0  9993,2 41183  47.0053  64.4394 0001980 231.7518 128.3204 14.43168143 20369
1 41183U 15081E   16131.28524495 +.00000061 +00000-0 +64245-4 0  9995,2 41183 047.0057 061.5682 0002120 232.9669 127.1016 14.43167397020456
1 41183U 15081E   16132.11603350 -.00000020  00000-0  40398-4 0  9995,2 41183  47.0063  57.7374 0002091 237.5087 122.5567 14.43167407 20575
1 41183U 15081E   16132.25449872 -.00000029 +00000-0 +37872-4 0  9999,2 41183 047.0062 057.0997 0002087 237.9170 122.1504 14.43167446020592
1 41183U 15081E   16133.22375174  .00000075  00000-0  68525-4 0  9999,2 41183  47.0070  52.6297 0002112 242.0702 117.9978 14.43168380 20733
1 41183U 15081E   16134.74686253  .00000232  00000-0  11468-3 0  9998,2 41183  47.0072  45.6093 0002102 245.8579 114.2075 14.43169971 20952
1 41183U 15081E   16135.85458021 -.00000012  00000-0  42783-4 0  9993,2 41183  47.0053  40.5049 0002202 250.2645 109.7988 14.43169154 21115
1 41183U 15081E   16136.82383322 -.00000051 +00000-0 +31169-4 0  9991,2 41183 047.0061 036.0360 0002069 256.7153 103.3490 14.43169355021252
1 41183U 15081E   16137.03153023 -.00000048  00000-0  32008-4 0  9997,2 41183  47.0063  35.0779 0002068 257.3092 102.7558 14.43169420 21289
1 41183U 15081E   16137.79308441 +.00000091 +00000-0 +73151-4 0  9997,2 41183 047.0062 031.5663 0002104 257.8211 102.2427 14.43170436021391
1 41183U 15081E   16138.07001351  .00000112  00000-0  79323-4 0  9990,2 41183  47.0064  30.2893 0002101 258.7416 101.3235 14.43170731 21438
1 41183U 15081E   16138.83156730 +.00000186 +00000-0 +10128-3 0  9994,2 41183 047.0070 026.7779 0002162 262.3778 097.6841 14.43171547021545
1 41183U 15081E   16139.10849638  .00000128  00000-0  84099-4 0  9996,2 41183  47.0070  25.5008 0002162 263.6168  96.4456 14.43171415 21581
1 41183U 15081E   16139.66235417 +.00000096 +00000-0 +74507-4 0  9998,2 41183 047.0069 022.9482 0002145 266.9107 093.1501 14.43171567021668
1 41183U 15081E   16140.07774833 -.00000005 +00000-0 +44923-4 0  9995,2 41183 047.0074 021.0326 0002120 265.3683 094.6958 14.43171219021729
1 41183U 15081E   16140.77007044 -.00000147  00000-0  30051-5 0  9990,2 41183  47.0077  17.8422 0002213 262.5564  97.5055 14.43170734 21824
1 41183U 15081E   16141.67008735 +.00000007 +00000-0 +48473-4 0  9998,2 41183 047.0076 013.6928 0002479 262.2835 097.7781 14.43172096021955
1 41183U 15081E   16142.01624790  .00000102  00000-0  76255-4 0  9997,2 41183  47.0066  12.0987 0002745 259.4270 100.6353 14.43172495 22008
1 41183U 15081E   16142.70856797 +.00000121 +00000-0 +82033-4 0  9999,2 41183 047.0057 008.9073 0002654 263.0734 096.9797 14.43172865022104
1 41183U 15081E   16143.47012226  .00000167  00000-0  95438-4 0  9998,2 41183  47.0057   5.3951 0002654 266.4810  93.5768 14.43173461 22218
1 41183U 15081E   16143.74705064 -.00000014 +00000-0 +42098-4 0  9993,2 41183 047.0055 004.1189 0002435 267.5632 092.4901 14.43172816022251
1 41183U 15081E   16144.64707086 -.00000078  00000-0  23387-4 0  9999,2 41183  47.0070 359.9697 0002158 281.2471  78.8120 14.43172908 22386
1 41183U 15081E   16145.68555300  .00000036  00000-0  56789-4 0  9999,2 41183  47.0069 355.1813 0002170 284.1159  75.9466 14.43173697 22535
1 41183U 15081E   16146.93173075  .00000051  00000-0  61288-4 0  9990,2 41183  47.0064 349.4349 0002183 290.5831  69.4790 14.43174177 22714
1 41183U 15081E   16147.69328377 -.00000029 +00000-0 +37735-4 0  9997,2 41183 047.0064 345.9244 0002218 289.2793 070.7841 14.43174145022829
1 41183U 15081E   16147.97021222  .00000030  00000-0  55030-4 0  9996,2 41183  47.0060 344.6475 0002242 289.8847  70.1809 14.43174523 22862
1 41183U 15081E   16148.66253285 -.00000272 +00000-0 -34005-4 0  9998,2 41183 047.0063 341.4561 0002367 284.8752 075.1873 14.43173191022961
1 41183U 15081E   16149.00869337 -.00000117  00000-0  11720-4 0  9994,2 41183  47.0035 339.8666 0002626 281.2936  78.7687 14.43173621 23017
1 41183U 15081E   16149.63178131 -.00000393 +00000-0 -69632-4 0  9990,2 41183 047.0039 336.9929 0002467 287.6468 072.4026 14.43172196023108
1 41183U 15081E   16150.53180118 -.00000082  00000-0  22031-4 0  9995,2 41183  47.0057 332.8426 0002169 300.5408  59.5263 14.43174217 23232
1 41183U 15081E   16150.67026524 -.00000077 +00000-0 +23652-4 0  9994,2 41183 047.0059 332.2041 0002182 301.2897 058.7768 14.43174264023251
1 41183U 15081E   16151.70874534  .00000054  00000-0  62103-4 0  9999,2 41183  47.0064 327.4158 0002069 303.8739  56.1925 14.43175300 23405
1 41183U 15081E   16152.88568930  .00000137  00000-0  86695-4 0  9993,2 41183  47.0075 321.9908 0001918 301.2038  58.8646 14.43176390 23572
1 41183U 15081E   16153.57801081 -.00000112 +00000-0 +13208-4 0  9991,2 41183 047.0066 318.8003 0001921 307.6589 052.4109 14.43175393023675
1 41183U 15081E   16154.27033128 -.00000101  00000-0  16379-4 0  9998,2 41183  47.0066 315.6074 0001904 310.4029  49.6690 14.43175525 23771
1 41183U 15081E   16154.75495482 -.00000018 +00000-0 +40892-4 0  9990,2 41183 047.0062 313.3733 0001889 311.4126 048.6581 14.43176010023841
1 41183U 15081E   16155.44727500  .00000019  00000-0  51946-4 0  9998,2 41183  47.0060 310.1809 0001829 312.5366  47.5377 14.43176447 23946
1 41183U 15081E   16155.86266671 +.00000018 +00000-0 +51490-4 0  9994,2 41183 047.0061 308.2656 0001904 316.9428 043.1292 14.43176522024006
1 41183U 15081E   16156.76268165  .00000103  00000-0  76603-4 0  9992,2 41183  47.0058 304.1160 0001948 317.3496  42.7210 14.43177247 24139
1 41183U 15081E   16157.80116185 -.00000097  00000-0  17599-4 0  9994,2 41183  47.0062 299.3284 0001875 320.0482  40.0246 14.43176682 24289
1 41183U 15081E   16158.77040959 -.00000143 +00000-0 +41025-5 0  9990,2 41183 047.0060 294.8588 0001914 323.1683 036.9069 14.43176681024427
1 41183U 15081E   16159.18580135 -.00000125  00000-0  94063-5 0  9991,2 41183  47.0060 292.9432 0001907 324.7658  35.3101 14.43176806 24480
1 41183U 15081E   16159.67042436 -.00000103 +00000-0 +15898-4 0  9996,2 41183 047.0057 290.7088 0001930 327.5702 032.5026 14.43176955024554
1 41183U 15081E   16160.57044053 -.00000029  00000-0  37720-4 0  9999,2 41183  47.0061 286.5588 0001897 330.3430  29.7377 14.43177622 24682
1 41183U 15081E   16160.77813563 +.00000049 +00000-0 +60643-4 0  9992,2 41183 047.0058 285.6011 0001990 331.2947 028.7828 14.43177984024711
1 41183U 15081E   16161.67815028 -.00000006  00000-0  44627-4 0  9998,2 41183  47.0053 281.4529 0001932 334.9734  25.1037 14.43177999 24847
1 41183U 15081E   16161.81661438 +.00000026 +00000-0 +54084-4 0  9997,2 41183 047.0053 280.8143 0001932 335.5929 024.4862 14.43178178024865
1 41183U 15081E   16162.71662863 -.00000044  00000-0  33432-4 0  9995,2 41183  47.0064 276.6666 0001756 338.2659  21.8094 14.43178238 24993
1 41183U 15081E   16163.75510789  .00000043  00000-0  58992-4 0  9995,2 41183  47.0061 271.8784 0001669 341.5514  18.5319 14.43178938 25146
1 41183U 15081E   16164.72435401 +.00000038 +00000-0 +57354-4 0  9995,2 41183 047.0058 267.4104 0001664 344.9614 015.1223 14.43179244025285
1 41183U 15081E   16165.07051312  .00000154  00000-0  91706-4 0  9997,2 41183  47.0060 265.8141 0001591 346.3842  13.7013 14.43179920 25337
1 41183U 15081E   16165.69359951 +.00000043 +00000-0 +58987-4 0  9996,2 41183 047.0056 262.9418 0001613 348.5461 011.5371 14.43179646025421
1 41183U 15081E   16166.10899067  .00000148  00000-0  89919-4 0  9995,2 41183  47.0056 261.0261 0001613 350.4044   9.6830 14.43180285 25481
1 41183U 15081E   16167.07823713 -.00000044 +00000-0 +33268-4 0  9999,2 41183 047.0056 256.5589 0001561 353.9090 006.1774 14.43179544025625
1 41183U 15081E   16167.28593255 -.00000064  00000-0  27465-4 0  9991,2 41183  47.0054 255.6016 0001590 355.2670   4.8192 14.43179599 25651
1 41183U 15081E   16167.63209174 -.00000111 +00000-0 +13690-4 0  9992,2 41183 047.0050 254.0059 0001561 355.6345 004.4513 14.43179368025701
1 41183U 15081E   16168.39364171 -.00000064  00000-0  27291-4 0  9994,2 41183  47.0052 250.4951 0001543 358.2094   1.8769 14.43179771 25818
1 41183U 15081E   16168.67056919 -.00000012 +00000-0 +42829-4 0  9990,2 41183 047.0053 249.2179 0001575 000.0141 000.0746 14.43180115025851
1 41183U 15081E   16169.63981421  .00000056  00000-0  62676-4 0  9991,2 41183  47.0056 244.7496 0001528   0.5684 359.5201 14.43180632 25998
1 41183U 15081E   16170.53982744 -.00000045 +00000-0 +32979-4 0  9993,2 41183 047.0055 240.6000 0001461 004.8459 355.2424 14.43180470026122
1 41183U 15081E   16171.02445015  .00000124  00000-0  82740-4 0  9991,2 41183  47.0055 238.3650 0001461   7.0140 353.0809 14.43181503 26197
1 41183U 15081E   16171.64753711 -.00000165 +00000-0 -23460-5 0  9996,2 41183 047.0055 235.4951 0001517 007.4227 352.6673 14.43180048026288
1 41183U 15081E   16172.20139164 -.00000169  00000-0 -34615-5 0  9997,2 41183  47.0056 232.9414 0001494   9.5534 350.5382 14.43180135 26363
1 41183U 15081E   16172.61678244 -.00000075 +00000-0 +24076-4 0  9993,2 41183 047.0052 231.0268 0001493 013.2665 346.8272 14.43180661026429
1 41183U 15081E   16173.23986738  .00000036  00000-0  56875-4 0  9990,2 41183  47.0052 228.1536 0001367  16.6639 343.4291 14.43181450 26513
1 41183U 15081E   16173.58602594 +.00000182 +00000-0 +99910-4 0  9992,2 41183 047.0044 226.5569 0001458 015.9976 344.0965 14.43182180026560
1 41183U 15081E   16174.48603795  .00000110  00000-0  78868-4 0  9996,2 41183  47.0046 222.4074 0001476  20.0585 340.0329 14.43182270 26695
1 41183U 15081E   16174.55527009 +.00000106 +00000-0 +77625-4 0  9992,2 41183 047.0046 222.0882 0001454 020.7806 339.3134 14.43182293026709
1 41183U 15081E   16175.52451436 -.00000100  00000-0  16737-4 0  9992,2 41183  47.0042 217.6195 0001362  25.0215 335.0721 14.43181638 26844
1 41183U 15081E   16176.49375861 -.00000238 +00000-0 -23905-4 0  9994,2 41183 047.0030 213.1512 0001193 029.8559 330.2384 14.43181089026987
1 41183U 15081E   16177.18607618 -.00000232  00000-0 -22272-4 0  9999,2 41183  47.0031 209.9585 0001184  32.7951 327.3006 14.43181042 27089
